GLOBALSTAR M057         
1 25943U 99058A   25057.37388071  .00000000  00000+0  84147-3 0  9996
2 25943  51.9993 302.6931 0002882 134.2586 225.8500 12.24814322153352
GLOBALSTAR M059         
1 25944U 99058B   25058.54447123 -.00000063  00000+0  28305-3 0  9995
2 25944  52.0009 143.7914 0001074 117.3266 256.2278 11.99974023149639
GLOBALSTAR M056         
1 25945U 99058C   25058.56661235 -.00000112  00000+0 -28528-3 0  9993
2 25945  51.9959 148.5033 0000390 355.5192  18.4646 12.04777049149454
GLOBALSTAR M031         
1 25946U 99058D   25058.45615810  .00000016  00000+0  10815-2 0  9990
2 25946  51.9978  47.7056 0001211 323.5239 202.3974 12.16031099151431
GLOBALSTAR M039         
1 25961U 99062A   25058.42092565 -.00000053  00000+0  28490-3 0  9996
2 25961  51.9825 243.0432 0003628 102.3051 257.8222 12.62319808166386
GLOBALSTAR M034         
1 25962U 99062B   25058.13971244 -.00000027  00000+0  85341-3 0  9994
2 25962  51.9878 297.4517 0013725 190.0624 333.4386 11.79444754125395
GLOBALSTAR M029         
1 25963U 99062C   25058.41508900 -.00000068  00000+0  22564-3 0  9994
2 25963  51.9822  32.2700 0002313 262.6772 264.0739 11.99891971155994
GLOBALSTAR M061         
1 25964U 99062D   25057.89597479 -.00000043  00000+0  60528-3 0  9990
2 25964  51.9781 120.6523 0006526 119.5644  51.5843 11.76771099108190
